IRIDIUM 26              
1 24903U 97043A   25365.14763050  .00000736  00000+0  24030-3 0  9995
2 24903  86.3944  27.8233 0002316  95.9040 264.2421 14.37344354485037
IRIDIUM 22              
1 24907U 97043E   25365.10207258  .00000615  00000+0  20445-3 0  9990
2 24907  86.3946  31.5516 0002334  91.1004 269.0460 14.36136182485030
DUMMY MASS 1            
1 24925U 97048A   25365.10735973  .00000701  00000+0  74804-4 0  9990
2 24925  86.3326  44.2043 0007498 149.8033 210.3625 14.87200355534393
DUMMY MASS 2            
1 24926U 97048B   25365.10241260  .00000694  00000+0  74486-4 0  9999
2 24926  86.3327  45.8510 0007767 162.2229 197.9269 14.86950743534167
IRIDIUM 29              
1 24944U 97051A   25365.12291944  .00000672  00000+0  22181-3 0  9999
2 24944  86.3936  61.2234 0002184  89.0915 271.0533 14.36679484481540
IRIDIUM 33              
1 24946U 97051C   25365.11481071  .00000553  00000+0  18714-3 0  9997
2 24946  86.3852  60.5071 0009094 143.1946 216.9876 14.35051727480981
IRIDIUM 28              
1 24948U 97051E   25365.11163743  .00000663  00000+0  21455-3 0  9990
2 24948  86.3941  58.6313 0002527 105.1659 254.9818 14.37579517482133
IRIDIUM 36              
1 24967U 97056C   25364.76592213  .00000704  00000+0  22736-3 0  9993
2 24967  86.3959  90.4055 0002395  97.5415 262.6055 14.37802278480463
